! Propagated orbits
! Orbits computed with differential corrections
format  = 'OEF2.0'       ! file format
rectype = 'ML'           ! record type (1L/ML)
refsys  = ECLM J2000     ! default reference system
END_OF_HEADER
test/call_orbfit/K21H00A
! Keplerian elements: a, e, i, long. node, arg. peric., mean anomaly
 KEP   3.1514694062448680E+00 0.113946062348132   1.6879159876457  38.1016474068882 136.1915246941109  46.5628893357021
 MJD     59345.297868819 TDT
 MAG   0.000  0.000
! Non-grav parameters: model used, actual number in use, dimension
 LSP   0  0    6
! RMS    7.94527E-03   1.83696E-02   4.77846E-02   3.17863E-01   1.34503E+01   9.82298E+00
! EIG   1.30989E-06   1.10901E-05   6.31799E-04   8.68343E-04   1.74206E-03   2.91426E-01
! WEA   0.02711   0.06291   0.00285   0.01884  -0.80552   0.58828
 COV   6.312732740992793E-05  1.442554826756006E-04  3.772827450631317E-04
 COV   2.495020750956783E-03 -1.062358949717197E-01  7.762499669289845E-02
 COV   3.374416230988811E-04  8.684198496955480E-04  5.750803105007065E-03
 COV  -2.466407496694860E-01  1.800315415591688E-01  2.283363727983237E-03
 COV   1.516707683093927E-02 -6.393462688933408E-01  4.670064474401642E-01
 COV   1.010368288672554E-01 -4.232116055891828E+00  3.090561168423513E+00
 COV   1.809099665602110E+02 -1.321165527695040E+02  9.649101224587986E+01
 NOR   5.436208271831889E+06  8.721087129258492E+08 -1.164006926563349E+06
 NOR   8.760477355421452E+06  8.657814684147900E+06  9.947873425812298E+06
 NOR   2.810618404182122E+11  2.848909090953575E+06  2.788377504935414E+09
 NOR   2.789845152590202E+09  3.205459675293830E+09  2.456423708625829E+06
 NOR  -2.219746022526209E+05  9.664326069779183E+03  4.074372845437631E+03
 NOR   2.768916716157324E+07  2.767963840315649E+07  3.180390590139290E+07
 NOR   2.769249211413706E+07  3.181803371092481E+07  3.655821385799348E+07
